COSMOS 1892             
1 18421U 87088A   20156.87348289  .00000276  00000-0  12216-4 0  9991
2 18421  82.4998 285.9878 0016669 108.3489 251.9559 15.17143322782648
SL-14 R/B               
1 18749U 88001B   20156.66943649  .00000081  00000-0  70154-5 0  9998
2 18749  82.5145   9.6277 0018305 345.1208  75.7946 14.83219344729978
COSMOS 1933             
1 18958U 88020A   20157.08397504  .00000561  00000-0  38838-4 0  9996
2 18958  82.5280 137.5427 0011088 186.1028 174.0065 15.03725626754399
SL-3 R/B                
1 19046U 88032B   20156.87597233  .00000899  00000-0  70781-4 0  9992
2 19046  97.4039 178.4997 0036788 248.1943 111.5367 15.02716129735072
SL-16 R/B               
1 19120U 88039B   20157.06298615  .00000115  00000-0  77586-4 0  9997
2 19120  71.0140 194.7048 0023336 321.6112  38.3351 14.19211850660168
COSMOS 1953             
1 19210U 88050A   20156.82265480  .00000744  00000-0  49011-4 0  9997
2 19210  82.5191  62.0922 0013492 156.7539 203.4302 15.05976988719769
SL-8 R/B                
1 19257U 88053B   20156.84602993  .00000054  00000-0  26750-4 0  9996
2 19257  74.0499  24.1685 0020291   3.7996  75.5327 14.37468801674191
COSMOS 1975             
1 19573U 88093A   20156.72210784 -.00000118  00000-0 -10408-4 0  9997
2 19573  82.5204  16.5158 0013661 199.8506 160.2191 15.04881684701596
SL-14 R/B               
1 19574U 88093B   20156.68703757  .00000062  00000-0  46168-5 0  9999
2 19574  82.5330 211.9801 0022615 140.9854 338.3704 14.83329342710069
SL-16 R/B               
1 19650U 88102B   20156.69641514 -.00000222  00000-0 -88370-4 0  9998
2 19650  71.0000 256.7313 0015447 326.1411  33.8724 14.15789949629356
INTERCOSMOS 24          
1 20261U 89080A   20156.75628142  .00000193  00000-0  48154-4 0  9994
2 20261  82.6067  28.4928 1203499 117.1315 255.7609 12.56118021401996
SL-14 R/B               
1 20262U 89080C   20156.83833608 -.00000006  00000-0 -27955-5 0  9991
2 20262  82.5957  82.0172 1235850 305.9470  43.2987 12.48941181397418
DELTA 2 R/B(1)          
1 20303U 89085B   20157.10913708  .00001990  00000-0  66013-4 0  9991
2 20303  35.6220  88.0499 0093875  66.3536 294.7013 15.27320006666175
DELTA 1 R/B             
1 20323U 89089B   20157.12965957  .00000023  00000-0  15266-4 0  9992
2 20323  97.0886 304.9223 0070170 269.8178  89.4978 14.48347579611611
ARIANE 40 R/B           
1 20443U 90005H   20156.78057018 -.00000007  00000-0  12346-4 0  9995
2 20443  98.5764 218.6248 0010819  27.4890 332.6867 14.38088988590291
DELTA 2 R/B(1)          
1 20453U 90008B   20156.78441647  .00001078  00000-0  62028-4 0  9994
2 20453  35.6261 331.0279 0281037 199.3326 159.6544 14.85555153609313
COSMOS 2058             
1 20465U 90010A   20156.82427275  .00000247  00000-0  18607-4 0  9997
2 20465  82.4890 285.4919 0014095 240.5823 119.3994 14.98010092626432
SL-14 R/B               
1 20466U 90010B   20157.04830729  .00000063  00000-0  50069-5 0  9990
2 20466  82.5044  78.3871 0021105  22.3723 337.8406 14.81385120637959
SL-14 R/B               
1 20511U 90018B   20156.75218751  .00000074  00000-0  66038-5 0  9996
2 20511  82.5243  24.9865 0018051 155.0848 271.6108 14.80041091632335
HST                     
1 20580U 90037B   20156.86141872  .00000397  00000-0  13176-4 0  9996
2 20580  28.4706  42.9485 0002524 318.1725 120.1121 15.09392764454069
SL-16 R/B               
1 20625U 90046B   20156.84825413  .00000189  00000-0  12276-3 0  9992
2 20625  70.9999  34.6588 0016314 261.7612  98.1660 14.14651631550837
COSMOS 2084             
1 20663U 90055A   20156.65287918 -.00000039  00000-0  14089-4 0  9995
2 20663  62.7941 210.9254 0029183 255.5744 104.2110 14.92087274621457
SL-6 R/B(2)             
1 20666U 90055D   20156.23851436 -.00000050  00000-0  13292-4 0  9992
2 20666  62.7852 128.7682 0042479 338.4811  21.4496 14.92337888622795
SL-8 R/B                
1 20775U 90078B   20156.75537742  .00001105  00000-0  53333-4 0  9997
2 20775  82.9285 237.0930 0572599 233.9644 120.7200 14.34312853503924
SL-8 R/B                
1 21088U 91006B   20156.89869347  .00000061  00000-0  45932-4 0  9997
2 21088  82.9415 294.5472 0023025 163.2084 309.3245 13.77148612474482
OKEAN-3                 
1 21397U 91039A   20156.64604109  .00000197  00000-0  16481-4 0  9999
2 21397  82.5217 188.8699 0017030 207.8756 152.1554 14.92926429571413
COSMOS 2151             
1 21422U 91042A   20156.91825052  .00000129  00000-0  10172-4 0  9990
2 21422  82.4997 294.8740 0012607 275.5554  84.4228 14.92133042570093
SL-14 R/B               
1 21423U 91042B   20156.81802726  .00000074  00000-0  67731-5 0  9996
2 21423  82.4951  28.7180 0016312 303.6017  56.3638 14.79791537541792
ERS-1                   
1 21574U 91050A   20156.89013388  .00000004  00000-0  16295-4 0  9999
2 21574  98.5968 110.2445 0032357 326.5045  33.4095 14.37744833513319
ARIANE 40 R/B           
1 21610U 91050F   20156.77779997  .00000010  00000-0  16650-4 0  9994
2 21610  98.4653 226.1381 0002116 311.7945 155.7792 14.40904886515876
INTERCOSMOS 25          
1 21819U 91086A   20156.87623615 -.00000239  00000-0 -49574-4 0  9996
2 21819  82.5911 133.8791 1514309 298.7838  46.9380 12.05138865242770
SL-8 R/B                
1 21876U 92008B   20156.79548497  .00000072  00000-0  58966-4 0  9997
2 21876  82.9286  31.8341 0033455 248.5764 179.6919 13.75658278420366
SL-8 R/B                
1 21938U 92020B   20156.88736015  .00000037  00000-0  22113-4 0  9991
2 21938  82.9302 275.8862 0030186  50.6409  66.6346 13.75285338411944
COSMOS 2219             
1 22219U 92076A   20157.11687207 -.00000228  00000-0 -95608-4 0  9993
2 22219  71.0615  93.4828 0017890 182.1303 177.9746 14.13647903421393
SL-16 R/B               
1 22220U 92076B   20156.86997498  .00000114  00000-0  81162-4 0  9994
2 22220  71.0005 298.0703 0011015  56.0997  56.1579 14.16455948423892
COSMOS 2221             
1 22236U 92080A   20156.84855277  .00000151  00000-0  13695-4 0  9999
2 22236  82.5072 115.5667 0016962   9.2221 350.9305 14.87923739467401
SL-16 R/B               
1 22285U 92093B   20156.85927603 -.00000031  00000-0  83755-5 0  9994
2 22285  71.0224  98.9374 0006543 274.1404  85.8971 14.15047644415551
COSMOS 2228             
1 22286U 92094A   20156.86986431  .00000147  00000-0  13129-4 0  9995
2 22286  82.5217  71.7666 0022445 120.6408 239.7026 14.88141752462572
SL-16 R/B               
1 22566U 93016B   20156.88499641  .00000120  00000-0  86775-4 0  9993
2 22566  71.0080 312.1317 0012460 282.2578  77.7149 14.14966674404566
COSMOS 2242             
1 22626U 93024A   20157.11538455  .00000169  00000-0  15571-4 0  9992
2 22626  82.5219  99.6542 0020286 119.5669 240.7573 14.87997686467322
SL-16 R/B               
1 22803U 93059B   20157.11757867 -.00000195  00000-0 -73395-4 0  9996
2 22803  70.9891 125.2625 0017241 182.5955 177.5082 14.16821121381812
ARIANE 40 R/B           
1 22830U 93061H   20156.72138252 -.00000006  00000-0  14741-4 0  9996
2 22830  98.7657 205.7957 0010885   5.9631 354.1679 14.31450609393250
COSMOS 2278             
1 23087U 94023A   20156.72516357  .00000128  00000-0  92515-4 0  9995
2 23087  71.0553 254.2564 0009225 348.1717  11.9187 14.13812482347645
SL-16 R/B               
1 23088U 94023B   20157.16923246 -.00000218  00000-0 -88360-4 0  9999
2 23088  70.9984 166.9062 0005784 261.0306  99.0161 14.14685378348842
SL-16 R/B               
1 23343U 94074B   20157.18080209  .00000022  00000-0  10499-4 0  9993
2 23343  97.9999 210.2893 0006818 178.8979 248.0448 14.76824976376815
SL-16 R/B               
1 23405U 94077B   20156.83376081 -.00000301  00000-0 -12998-3 0  9999
2 23405  70.9835  96.9967 0001219 183.7171 176.3943 14.15220653318571
ERS-2                   
1 23560U 95021A   20156.87999950  .00000556  00000-0  27303-4 0  9998
2 23560  98.5402 308.6656 0002929 193.5641 166.5514 15.23171851340202
ARIANE 40+ R/B          
1 23561U 95021B   20156.72917025  .00000027  00000-0  24121-4 0  9994
2 23561  98.7247 195.7258 0005808 295.7624 173.2304 14.37970514316965
SL-16 R/B               
1 23705U 95058B   20156.79340354  .00000254  00000-0  15504-3 0  9992
2 23705  71.0229 275.5123 0010484  85.9789 274.2532 14.15137300270186
SL-16 R/B               
1 24298U 96051B   20156.83880794 -.00000043  00000-0  30147-5 0  9995
2 24298  70.8438 297.1164 0014197   1.6479 358.4686 14.12500425224570
ORBVIEW 2 (SEASTAR)     
1 24883U 97037A   20156.83757509  .00000028  00000-0  26129-4 0  9993
2 24883  98.6091 270.1885 0003270 127.5361 232.6121 14.33556890207165
SL-16 R/B               
1 25400U 98043G   20156.79853068 -.00000032  00000-0  49253-5 0  9999
2 25400  98.6071  92.9600 0010285  18.4536 341.7015 14.25454268139211
SL-16 R/B               
1 25407U 98045B   20156.76351612 -.00000021  00000-0  13740-4 0  9992
2 25407  71.0118 284.2750 0008187 340.2298  19.8507 14.15797618129289
ISS (ZARYA)             
1 25544U 98067A   20157.17043900  .00001189  00000-0  29319-4 0  9996
2 25544  51.6455  47.9439 0001982  29.8888  69.4543 15.49422649230155
SL-8 R/B                
1 25723U 99022C   20156.76898102  .00014621  00000-0  10430-3 0  9991
2 25723  48.4107  73.9858 0005248 278.6095  81.4264 15.73944976175981
CZ-4B R/B               
1 25732U 99025C   20156.70770356 -.00000005  00000-0  19650-4 0  9994
2 25732  98.9448 185.3549 0036358 246.2293 222.6205 14.17677069 90153
OKEAN-O                 
1 25860U 99039A   20156.63654172  .00000023  00000-0  10873-4 0  9997
2 25860  98.2144 175.4128 0000791  90.1003 270.0297 14.76662752123716
SL-16 R/B               
1 25861U 99039B   20157.07952815  .00000011  00000-0  89924-5 0  9993
2 25861  98.2072 158.9928 0015303 192.8362 207.8680 14.78578942125933
DELTA 2 R/B             
1 25876U 99041E   20156.84009189 -.00000159  00000-0  12557-4 0  9994
2 25876  51.7685   0.1443 0530512 307.4057  47.9688 14.04430219 66851
